{"fetched_at":"2026-04-27T10:18:45Z","count":15360,"tles":[{"name":"2026-090A","line1":"1 68826U 26090A   26114.73803336  .00037958  00000+0  20267-3 0  9995","line2":"2 68826  96.6459  34.2833 0011850 244.0774 115.9275 15.80198214   220","category":"Other"}]}