{
  "norad_id": 68826,
  "name": "2026-090A",
  "history": [
    {
      "epoch": "2026-04-24T17:42:46.082304Z",
      "apogee_km": 337.8292279890684,
      "perigee_km": 321.93002114585033,
      "latitude_deg": 3.447574395731219e-05,
      "longitude_deg": -84.17532030189221,
      "height_km": 336.55655502038024,
      "semi_major_axis_km": 6708.016624567459,
      "eccentricity": 0.00118509,
      "inclination_deg": 96.6459,
      "raan_deg": 34.2833,
      "arg_perigee_deg": 244.0774,
      "mean_anomaly_deg": 115.9275,
      "mean_motion_rev_day": 15.80198214
    }
  ]
}